SOYUZ-MS 28             
1 66664U 25275A   26011.91888894  .00010131  00000+0  19006-3 0  9998
2 66664  51.6333 353.0651 0007709   8.0909 352.0202 15.49245617  1282
1998-067XS              
1 66906U 98067XS  26011.93921993  .00027664  00000+0  45161-3 0  9996
2 66906  51.6321 352.4527 0002260   0.4037 359.6954 15.52355692  6302
1998-067XT              
1 66907U 98067XT  26011.95943846  .00081254  00000+0  11401-2 0  9994
2 66907  51.6315 351.8387 0003694  45.8081 314.3213 15.56017689  6319
1998-067XU              
1 66908U 98067XU  26011.63732770  .00070389  00000+0  99318-3 0  9993
2 66908  51.6304 353.4362 0003659  40.6555 319.4710 15.55929380  6260
SILVERSAT               
1 66909U 98067XV  26011.18083389  .00103438  00000+0  14188-2 0  9992
2 66909  51.6315 355.6383 0003911  48.1318 312.0007 15.56521403  6196
1998-067XW              
1 66910U 98067XW  26011.95207423  .00080282  00000+0  11144-2 0  9996
2 66910  51.6293 351.7870 0002735  26.5018 333.6113 15.56316483  6312
1998-067XX              
1 66911U 98067XX  26011.55392327  .00088873  00000+0  11872-2 0  9993
2 66911  51.6299 353.6286 0002776  42.4258 317.6949 15.57304192  6245
1998-067XY              
1 66912U 98067XY  26011.97556603  .00059813  00000+0  88620-3 0  9997
2 66912  51.6315 351.9453 0003631  29.4471 330.6724 15.54668865  6305
