CCSDS_OMM_VERS = 2.0
CREATION_DATE  = 
ORIGINATOR     = 

OBJECT_NAME    = SOYUZ-MS 28
OBJECT_ID      = 2025-275A
CENTER_NAME    = EARTH
REF_FRAME      = TEME
TIME_SYSTEM    = UTC
MEAN_ELEMENT_THEORY = SGP/SGP4

EPOCH          = 2026-01-11T22:03:12.004416
MEAN_MOTION    = 15.49245617
ECCENTRICITY   = .00077091
INCLINATION    = 51.6333
RA_OF_ASC_NODE = 353.0651
ARG_OF_PERICENTER = 8.0909
MEAN_ANOMALY   = 352.0202

EPHEMERIS_TYPE = 0
CLASSIFICATION_TYPE = U
NORAD_CAT_ID   = 66664
ELEMENT_SET_NO = 999
REV_AT_EPOCH   = 128
BSTAR          = .1900602E-3
MEAN_MOTION_DOT = .10131E-3
MEAN_MOTION_DDOT = 0

CCSDS_OMM_VERS = 2.0
CREATION_DATE  = 
ORIGINATOR     = 

OBJECT_NAME    = 1998-067XS
OBJECT_ID      = 1998-067XS
CENTER_NAME    = EARTH
REF_FRAME      = TEME
TIME_SYSTEM    = UTC
MEAN_ELEMENT_THEORY = SGP/SGP4

EPOCH          = 2026-01-11T22:32:28.601952
MEAN_MOTION    = 15.52355692
ECCENTRICITY   = .00022606
INCLINATION    = 51.6321
RA_OF_ASC_NODE = 352.4527
ARG_OF_PERICENTER = 0.4037
MEAN_ANOMALY   = 359.6954

EPHEMERIS_TYPE = 0
CLASSIFICATION_TYPE = U
NORAD_CAT_ID   = 66906
ELEMENT_SET_NO = 999
REV_AT_EPOCH   = 630
BSTAR          = .45160627E-3
MEAN_MOTION_DOT = .27664E-3
MEAN_MOTION_DDOT = 0

CCSDS_OMM_VERS = 2.0
CREATION_DATE  = 
ORIGINATOR     = 

OBJECT_NAME    = 1998-067XT
OBJECT_ID      = 1998-067XT
CENTER_NAME    = EARTH
REF_FRAME      = TEME
TIME_SYSTEM    = UTC
MEAN_ELEMENT_THEORY = SGP/SGP4

EPOCH          = 2026-01-11T23:01:35.482944
MEAN_MOTION    = 15.56017689
ECCENTRICITY   = .00036945
INCLINATION    = 51.6315
RA_OF_ASC_NODE = 351.8387
ARG_OF_PERICENTER = 45.8081
MEAN_ANOMALY   = 314.3213

EPHEMERIS_TYPE = 0
CLASSIFICATION_TYPE = U
NORAD_CAT_ID   = 66907
ELEMENT_SET_NO = 999
REV_AT_EPOCH   = 631
BSTAR          = .11401273E-2
MEAN_MOTION_DOT = .81254E-3
MEAN_MOTION_DDOT = 0

CCSDS_OMM_VERS = 2.0
CREATION_DATE  = 
ORIGINATOR     = 

OBJECT_NAME    = 1998-067XU
OBJECT_ID      = 1998-067XU
CENTER_NAME    = EARTH
REF_FRAME      = TEME
TIME_SYSTEM    = UTC
MEAN_ELEMENT_THEORY = SGP/SGP4

EPOCH          = 2026-01-11T15:17:45.113280
MEAN_MOTION    = 15.55929380
ECCENTRICITY   = .00036596
INCLINATION    = 51.6304
RA_OF_ASC_NODE = 353.4362
ARG_OF_PERICENTER = 40.6555
MEAN_ANOMALY   = 319.4710

EPHEMERIS_TYPE = 0
CLASSIFICATION_TYPE = U
NORAD_CAT_ID   = 66908
ELEMENT_SET_NO = 999
REV_AT_EPOCH   = 626
BSTAR          = .99318066E-3
MEAN_MOTION_DOT = .70389E-3
MEAN_MOTION_DDOT = 0

CCSDS_OMM_VERS = 2.0
CREATION_DATE  = 
ORIGINATOR     = 

OBJECT_NAME    = SILVERSAT
OBJECT_ID      = 1998-067XV
CENTER_NAME    = EARTH
REF_FRAME      = TEME
TIME_SYSTEM    = UTC
MEAN_ELEMENT_THEORY = SGP/SGP4

EPOCH          = 2026-01-11T04:20:24.048096
MEAN_MOTION    = 15.56521403
ECCENTRICITY   = .00039111
INCLINATION    = 51.6315
RA_OF_ASC_NODE = 355.6383
ARG_OF_PERICENTER = 48.1318
MEAN_ANOMALY   = 312.0007

EPHEMERIS_TYPE = 0
CLASSIFICATION_TYPE = U
NORAD_CAT_ID   = 66909
ELEMENT_SET_NO = 999
REV_AT_EPOCH   = 619
BSTAR          = .14187607E-2
MEAN_MOTION_DOT = .103438E-2
MEAN_MOTION_DDOT = 0

CCSDS_OMM_VERS = 2.0
CREATION_DATE  = 
ORIGINATOR     = 

OBJECT_NAME    = 1998-067XW
OBJECT_ID      = 1998-067XW
CENTER_NAME    = EARTH
REF_FRAME      = TEME
TIME_SYSTEM    = UTC
MEAN_ELEMENT_THEORY = SGP/SGP4

EPOCH          = 2026-01-11T22:50:59.213472
MEAN_MOTION    = 15.56316483
ECCENTRICITY   = .00027357
INCLINATION    = 51.6293
RA_OF_ASC_NODE = 351.7870
ARG_OF_PERICENTER = 26.5018
MEAN_ANOMALY   = 333.6113

EPHEMERIS_TYPE = 0
CLASSIFICATION_TYPE = U
NORAD_CAT_ID   = 66910
ELEMENT_SET_NO = 999
REV_AT_EPOCH   = 631
BSTAR          = .11144472E-2
MEAN_MOTION_DOT = .80282E-3
MEAN_MOTION_DDOT = 0

CCSDS_OMM_VERS = 2.0
CREATION_DATE  = 
ORIGINATOR     = 

OBJECT_NAME    = 1998-067XX
OBJECT_ID      = 1998-067XX
CENTER_NAME    = EARTH
REF_FRAME      = TEME
TIME_SYSTEM    = UTC
MEAN_ELEMENT_THEORY = SGP/SGP4

EPOCH          = 2026-01-11T13:17:38.970528
MEAN_MOTION    = 15.57304192
ECCENTRICITY   = .00027763
INCLINATION    = 51.6299
RA_OF_ASC_NODE = 353.6286
ARG_OF_PERICENTER = 42.4258
MEAN_ANOMALY   = 317.6949

EPHEMERIS_TYPE = 0
CLASSIFICATION_TYPE = U
NORAD_CAT_ID   = 66911
ELEMENT_SET_NO = 999
REV_AT_EPOCH   = 624
BSTAR          = .11872404E-2
MEAN_MOTION_DOT = .88873E-3
MEAN_MOTION_DDOT = 0

CCSDS_OMM_VERS = 2.0
CREATION_DATE  = 
ORIGINATOR     = 

OBJECT_NAME    = 1998-067XY
OBJECT_ID      = 1998-067XY
CENTER_NAME    = EARTH
REF_FRAME      = TEME
TIME_SYSTEM    = UTC
MEAN_ELEMENT_THEORY = SGP/SGP4

EPOCH          = 2026-01-11T23:24:48.904992
MEAN_MOTION    = 15.54668865
ECCENTRICITY   = .00036316
INCLINATION    = 51.6315
RA_OF_ASC_NODE = 351.9453
ARG_OF_PERICENTER = 29.4471
MEAN_ANOMALY   = 330.6724

EPHEMERIS_TYPE = 0
CLASSIFICATION_TYPE = U
NORAD_CAT_ID   = 66912
ELEMENT_SET_NO = 999
REV_AT_EPOCH   = 630
BSTAR          = .88619784E-3
MEAN_MOTION_DOT = .59813E-3
MEAN_MOTION_DDOT = 0

